CMS-01                  
1 47256U 20099A   22230.85029932 -.00000173  00000+0  00000+0 0  9991
2 47256   0.0600 273.4530 0005542 347.9435  94.8873  1.00275884  6175
TURKSAT 5A              
1 47306U 21001A   22230.56993870  .00000147  00000+0  00000+0 0  9990
2 47306   0.0165 109.3526 0000220 139.3680 314.2702  1.00272887  5957
TIANTONG-1 3            
1 47321U 21003A   22230.70610788 -.00000158  00000+0  00000+0 0  9992
2 47321   4.2969 308.1581 0003888 194.1192 160.4715  1.00271862  5948
TJS-6                   
1 47613U 21010A   22230.89183275  .00000037  00000+0  00000+0 0  9995
2 47613   0.5113 285.1698 0000307 269.2537 272.5365  1.00267408  5795
SBIRS GEO-5 (USA 315)   
1 48618U 21042A   22230.94632670  .00000116  00000+0  00000+0 0  9998
2 48618   7.2445 326.0806 0002564 177.1386 185.6187  1.00273078  4712
FENGYUN 4B              
1 48808U 21047A   22230.81099800 -.00000329  00000+0  00000+0 0  9999
2 48808   0.1228  84.5939 0001887 291.7307  15.9495  1.00275908  4553
SXM-8                   
1 48838U 21049A   22231.05449564 -.00000212  00000+0  00000+0 0  9998
2 48838   0.0428 287.3204 0001685  66.7906 267.6991  1.00273144  4609
TIANLIAN 1-05           
1 49011U 21063A   22230.73313493  .00000102  00000+0  00000+0 0  9990
2 49011   2.0137 282.4628 0004151 240.9243  84.3546  1.00273066  4051
STAR ONE D2             
1 49055U 21069A   22230.28714865 -.00000273  00000+0  00000+0 0  9992
2 49055   0.0196 115.4374 0002764  46.3749 198.1870  1.00273385  3880
EUTELSAT QUANTUM        
1 49056U 21069B   22231.08091735  .00000120  00000+0  00000+0 0  9996
2 49056   0.0385 299.8346 0001671 211.7681 252.6335  1.00269956  3900
CHINASAT 2E (ZX 2E)     
1 49062U 21071A   22231.18504031 -.00000298  00000+0  00000+0 0  9992
2 49062   0.0488 277.7705 0000364 117.6594  96.7551  1.00272756  4034
TJS-7                   
1 49115U 21077A   22230.72132832 -.00000238  00000+0  00000+0 0  9996
2 49115   0.1565 257.6241 0000831 224.0324 251.5954  1.00270001  3796
CHINASAT 9B             
1 49125U 21080A   22230.87999453 -.00000319  00000+0  00000+0 0  9997
2 49125   0.0160 185.5090 0003101 336.6701 223.1923  1.00269525  3611
SHIJIAN-21 (SJ-21)      
1 49330U 21094A   22230.89384495 -.00000423  00000+0  00000+0 0  9992
2 49330   8.5650  49.6438 0109523  16.4854 351.8255  1.00411163  3242
SYRACUSE 4A             
1 49333U 21095B   22231.08048135  .00000129  00000+0  00000+0 0  9998
2 49333   0.0175 112.4792 0001571  32.4494 256.9463  1.00270945  3975
QZS-1R                  
1 49336U 21096A   22228.78331767 -.00000328  00000+0  00000+0 0  9993
2 49336  34.5799 100.8749 0759478 272.3048   2.9725  1.00236719  2971
CHINASAT 1D (ZX 1D)     
1 49505U 21114A   22230.88215352 -.00000342  00000+0  00000+0 0  9993
2 49505   1.3201 278.4268 0002154 231.7532 264.7325  1.00272826  2812
